IRIDIUM 136             
1 42962U 17061H   24178.47498112  .00000380  00000+0  12873-3 0  9990
2 42962  86.3973 326.4368 0001873  98.5346 261.6062 14.34219973351530
